#dP2023  8 19  0  0  0.00000000      96 __u+U IGS14 FIT  IAC
## 2275 518400.00000000   900.00000000 60175 0.0000000000000
+  119   C06C07C08C09C10C11C12C13C14C16C19C20C21C22C23C24C25
+        C26C27C28C29C30C32C33C34C35C36C37C38C39C40C41C42C43
+        C44C45C46E02E03E04E05E07E08E09E10E11E12E13E14E15E18
+        E19E21E24E25E26E27E30E31E33E34E36G01G02G03G04G05G06
+        G07G08G09G10G11G12G13G14G15G16G17G18G19G20G21G22G23
+        G24G25G26G27G28G29G30G31G32J02J03J04R01R02R03R04R05
+        R07R08R09R11R12R13R14R15R16R17R18R19R20R21R22R24R25
++         7  7  7  7  7  7  7  7  7  7  5  6  6  6  6  6  6
++         6  6  6  6  6  6  6  6  6  6  6  6  6  6  6  6  6
++         6  6  6  5  4  4  4  4  5  4  4  4  4  5  4  5  4
++         4  4  4  4  5  4  5  4  4  4  4  4  4  3  4  4  3
++         4  4  4  4  4  3  4  4  4  4  3  4  3  4  4  4  4
++         4  3  4  4  4  4  3  3  3  9  9  9  8  7  7  7  7
++         6  6  7  7  7  8  7  7  7  7  7  8  8  7  7  6  8
%c M  cc GPS ccc cccc cccc cccc cccc ccccc ccccc ccccc ccccc
%c cc cc ccc ccc cccc cccc cccc cccc ccccc ccccc ccccc ccccc
%f  1.2500000  1.025000000  0.00000000000  0.000000000000000
%f  0.0000000  0.000000000  0.00000000000  0.000000000000000
%i    0    0    0    0      0      0      0      0         0
%i    0    0    0    0      0      0      0      0         0
/* INFORMATION & ANALYSIS CENTER (IAC)            FINAL DATA
/* S/V CLOCKS ARE ALIGNED TO GNSS TIME                      
/* G:C1WC2W R:C1PC2P E:C1XC5X C:C2IC6I J:C1CC2S             
/* PCV:IGS20_2274 OL/AL:FES2004  NONE     YN ORB:CoN CLK:CoN
*  2023 08 19 15 15  0.00000000
PC06 -18212.302696  28164.391567  25415.927688    926.894977
PC07  -7750.280546  40211.882101  10559.106118     45.495541
PC08  -1419.255126  22774.301905 -35435.808903    383.181959
PC09  -9087.464020  27336.952647  31020.344434    272.878360
PC10  -2582.470795  42141.021180   4906.989034   -150.589873
PC11 -23118.675880  15494.478385   2328.784975    787.504842
PC12 -21131.193125   1043.799499  18242.870812    884.207858
PC13   5118.523746  26360.845013 -32280.205605    337.065441
PC14 -12392.766678  13511.832367 -21047.626977    255.030589
PC16 -20934.414388  27754.255988  23886.697498    -42.359121
PC19   7292.748975 -21908.214468  15670.517399   -963.686071
PC20  15065.502975  -4732.917917  23009.135394    349.621127
PC21 -14357.210842 -16783.591687 -17034.981420   -952.046964
PC22  -5097.881000 -27397.660716  -1157.912002   -344.532884
PC23   6965.623823  18169.728200  20012.524396   -899.751201
PC24 -25792.615754  -1772.308050  10532.497552    300.914945
PC25 -12169.676479  12362.992166  21856.552776    192.811284
PC26 -24000.156011 -13040.663831  -5818.076362   -165.480203
PC27  16098.801176   6642.148103 -21826.715155    186.733885
PC28    236.772716  18432.204139 -20951.016852    139.719698
PC29  17220.197476 -20918.072795   6663.942510    163.019413
PC30  23561.869873  -9681.234758 -11420.924008     -3.697685
PC32  14474.581431  16798.445043  16957.826734   -531.528356
PC33  -7219.272765  21912.440526 -15716.436504   -941.492004
PC34 -23625.520334  10780.541837  10184.970418    240.630278
PC35   -699.171543 -18597.270674  20791.614078    564.486907
PC36  13215.215782 -11615.215737 -21630.079005   -268.473564
PC37  23171.933711  14027.267366   6679.123314   -810.226798
PC38 -10515.294191  20353.130490 -35366.401920     99.201736
PC39 -25213.114828  28211.581941  18392.164400     -4.392616
PC40 -13036.385720  37687.591294  14111.877635    -33.457564
PC41   4788.490354  27494.417605    489.898178   -886.670868
PC42 -15403.293995   3143.450551 -23020.939097   -572.904069
PC43 -17797.028655  20675.558621  -5852.575665     35.963411
PC44 -16261.921779  -6305.263387  21764.590354    204.980733
PC45  -7593.364511 -18118.912205 -19821.269491    -15.819419
PC46  25293.405637    838.727438 -11712.273143    -77.747611
PE02 -22117.708604 -12083.402221  15537.236868     56.585928
PE03 -17656.069863  -1065.121110 -23740.939665    -47.507734
PE04  18408.659070 -18877.184565  13452.472162   -192.912207
PE05  -6587.581046 -20555.334008 -20252.425514     10.468166
PE07  -8563.082567  27968.134105   4589.174844    -68.534103
PE08 -18418.460106  18589.675608 -13848.773816   -132.797721
PE09   8652.882972 -27944.959991  -4459.069205   -126.019697
PE10  18487.777984 -14084.534372  18310.653920   -557.288755
PE11   7419.946310 -16235.844321  23597.233352   2758.131308
PE12  25743.251662  -9972.649895  10680.098082   -664.112060
PE13  -8224.328543  16128.426500 -23420.754248    -19.460643
PE14   3197.435000 -21634.838949   8686.297218    315.814568
PE15 -25950.280722   9784.287959 -10349.737714    -46.360669
PE18   -731.602312  28491.655156 -15581.941611    431.801367
PE19  16575.478293   3923.430751  24212.583126  -1816.422798
PE21  16773.807278  24349.360448   1410.608538   -547.584114
PE24   -740.097932 -22918.501472 -18734.928785   -274.523479
PE25 -16579.507789 -24460.357552  -1733.655256     -0.492608
PE26  14798.445078  12825.373713 -22194.871452    197.400621
PE27   1379.650385  23164.749655  18381.003471   -128.508464
PE30 -15009.657685   7894.367358  24258.296891   -430.726026
PE31  14637.168227  -8355.849789 -24319.420564     -3.042649
PE33  28011.702484   2607.689664  -9185.060058     -1.381063
PE34 -28259.389973  -2130.116405   8565.908684    -62.395714
PE36 -14064.062906 -12944.609287  22598.157145   -103.390284
PG01   7770.067660  13729.868654 -21768.103206    168.032230
PG02    174.412409  14961.387958 -21431.839200   -563.723610
PG03  12076.448897  23164.118409  -5267.041512   -179.428668
PG04   3144.795512  20106.930258  17011.548361    130.394831
PG05    -95.689218 -19746.652503  17529.864308   -139.413095
PG06  25476.936075  -5631.317860   5288.899690    564.044528
PG07  22528.814387   7242.766990  13000.185676     91.336136
PG08  -4444.620821  24763.010577  -7931.504392   -137.968965
PG09  10802.936026  12156.412973  20909.733025    -82.528818
PG10 -18208.120526  -3658.808200 -18932.498257    -49.920923
PG11  16315.267058 -12408.652741  16873.389129   -328.156363
PG12  -7597.734095 -24054.680412  -8705.672953   -414.764954
PG13  13111.775570 -22901.249430  -1873.799544    562.065495
PG14  19265.666527   6866.135003 -17010.685165    158.884708
PG15    512.007651 -25052.569555  -8899.023396     69.150986
PG16  -6064.798184  16447.900000  19505.652744   -466.139184
PG17  17421.626311  -5193.933339 -18969.429377    722.931554
PG18 -23859.921167  -5384.531616  10567.221632   -388.050215
PG19  18668.444203 -11901.064495 -14627.931369    359.811883
PG20   8865.801584 -12900.124646  21505.571481    416.391279
PG21  -2056.040386  15259.922502 -20996.112753    150.466716
PG22  16182.375580   -570.624295 -20535.756314    138.651541
PG23 -19751.507922 -14680.626088 -10204.224183     57.072408
PG24  -3391.580388 -15609.626430 -21595.167804   -294.477347
PG25 -17420.501938 -19924.408539   3244.746877    463.055970
PG26 -14062.596652   7567.127045  21130.659519    232.307080
PG27 -12762.151306  22773.486012   3228.204607    -24.799185
PG28 -25807.401685   5480.638546   3046.053538     74.675488
PG29  -9147.269772 -13067.340917  21170.194159   -608.050810
PG30  26454.775310    445.525082   3736.302359   -495.155714
PG31 -21116.913423  10408.930267  12514.093818   -222.090621
PG32 -17500.502847   9570.997607 -17257.468145   -543.383603
PJ02 -26449.301970  22123.393734  29385.375358     -2.767911
PJ03 -35461.320608  20232.803875  -6051.378717     -1.282497
PJ04 -18323.085467  30863.889466 -16976.797828     70.487850
PR01   9686.449045  12058.354774  20283.997791     63.822476
PR02  10552.386865  -7675.450507  21970.504017    -22.511160
PR03   5609.698989 -22537.118775  10659.127532     83.605682
PR04  -2072.769144 -24644.329471  -6255.210869    199.327661
PR05  -8703.428860 -13528.741528 -19798.263611    117.592416
PR07  -5244.136560  22913.995578  -9806.849493     62.783899
PR08   2416.745319  24529.279082   6557.648903    -72.172458
PR09 -19298.938068  -1582.002400  16580.965508    137.550801
PR11  10461.897557  15693.606743  17197.796389   -136.913614
PR12  21908.274947  13049.106324   -292.876695     30.345521
PR13  20247.622907   3462.292304 -15130.894275    -38.315348
PR14   5471.109346  -9711.113441 -22925.343522     25.098834
PR15 -11445.703674 -16027.559035 -16180.315841     86.880003
PR16 -21931.704602 -12987.958727     58.781231     17.856087
PR17  16416.069819 -15143.132804  12282.543577     10.208535
PR18   1630.161423 -12199.551952  22360.929232     97.566344
PR19 -12894.377642  -4384.953301  21567.581956   -244.077307
PR20 -23333.345212   8343.593919   5988.326466    -98.574648
PR21 -15809.914966  15063.793722 -13215.884845    -31.564484
PR22   -810.973218  12113.005393 -22408.838566    115.690617
PR24  23085.384949  -9425.421864  -5300.351320    -21.077364
PR25 -17094.185504  14554.247773 -12131.942546     41.864218
EOF
